EUTELSAT 7A             
1 28187U 04008A   25199.37822714  .00000106  00000+0  00000+0 0  9993
2 28187   4.9780  76.0193 0001553  74.5059 142.8398  1.00272283 78001
EUTELSAT 174A           
1 28924U 05052A   25200.09095234  .00000011  00000+0  00000+0 0  9998
2 28924   3.3714  80.7030 0005990  40.6382  22.4828  1.00271476 71641
EUTELSAT HOTBIRD 13E    
1 28946U 06007B   25200.05585216 -.00000164  00000+0  00000+0 0  9993
2 28946   1.2079  89.6492 0006195 184.4622  40.4704  0.98118219 70944
EUTELSAT HOTBIRD 13B    
1 29270U 06032A   25199.56333156  .00000161  00000+0  00000+0 0  9995
2 29270   0.7961  85.9889 0003616  35.2148  51.2843  1.00272263 43969
EUTELSAT HOTBIRD 13C    
1 33459U 08065A   25200.09419627 -.00000097  00000+0  00000+0 0  9995
2 33459   2.0902  83.1998 0003179  43.0805 192.2403  1.00271425 60905
EUTELSAT 36B            
1 36101U 09065A   25199.56679824  .00000118  00000+0  00000+0 0  9992
2 36101   0.0537 342.2840 0005639 135.5053  73.3543  1.00268966 57360
EUTELSAT KA-SAT 9A      
1 37258U 10069A   25199.55856487  .00000068  00000+0  00000+0 0  9997
2 37258   0.0628 302.7994 0003698 189.3387  14.5394  1.00270825 53472
EUTELSAT 7 WEST A       
1 37816U 11051A   25200.09419627 -.00000055  00000+0  00000+0 0  9999
2 37816   0.0634 342.7469 0004662 154.3271 186.6477  1.00270798 50633
